OBJECT_NAME,OBJECT_ID,EPOCH,MEAN_MOTION,ECCENTRICITY,INCLINATION,RA_OF_ASC_NODE,ARG_OF_PERICENTER,MEAN_ANOMALY,EPHEMERIS_TYPE,CLASSIFICATION_TYPE,NORAD_CAT_ID,ELEMENT_SET_NO,REV_AT_EPOCH,BSTAR,MEAN_MOTION_DOT,MEAN_MOTION_DDOT
H-2A R/B,2006-002B,2026-07-15T22:07:00.129792,15.18452560,.00508371,98.2594,355.3623,163.5817,196.7076,0,U,28932,999,11388,.24415851E-3,.5118E-4,0
RESURS-DK 1,2006-021A,2026-07-15T12:35:44.509344,15.13319759,.00071281,69.9307,266.1925,270.7395,89.2954,0,U,29228,999,10686,.57571113E-4,.919E-5,0
CZ-4B R/B,2006-046C,2026-07-15T17:33:32.602176,15.17984393,.00326512,97.5436,241.2512,180.2561,179.8661,0,U,29507,999,7946,.12542201E-3,.2512E-4,0
CZ-2C R/B,2007-010B,2026-07-15T20:57:34.962912,14.20281894,.00577654,98.4120,303.8244,281.7539,77.7162,0,U,31114,999,99791,.33322533E-4,.31E-6,0
COSMO-SKYMED 1,2007-023A,2026-07-15T22:34:21.488736,14.97221418,.00014911,97.8846,29.0397,103.0882,257.0506,0,U,31598,999,3409,.12600194E-3,.1398E-4,0
COSMOS 2428,2007-029A,2026-07-15T12:47:17.085696,14.12934606,.00072036,70.9381,294.9624,80.5752,279.6183,0,U,31792,999,98215,.15641268E-3,.244E-5,0
SL-16 R/B,2007-029B,2026-07-15T12:55:10.041024,14.14851875,.00019536,70.9745,263.6316,256.3609,203.2418,0,U,31793,999,98345,.12662975E-3,.197E-5,0
KORONAS-FOTON,2009-003A,2026-07-15T21:08:23.257536,15.46309035,.00121189,82.4312,142.3153,60.3216,299.9238,0,U,33504,999,96553,.15934289E-3,.7914E-4,0
CZ-2C R/B,2011-030B,2026-07-15T21:07:24.797568,14.81533069,.00507968,97.8670,151.7525,293.8643,124.8401,0,U,37731,999,80907,.65325039E-4,.468E-5,0
H-2A R/B,2012-025E,2026-07-15T22:07:21.983808,14.95838466,.00425336,98.4847,174.4421,252.6414,107.0151,0,U,38341,999,76738,.52124781E-4,.521E-5,0
SHIJIAN-16 (SJ-16),2013-057A,2026-07-15T22:14:08.568384,14.92673796,.0015764,74.9741,302.2489,162.9733,197.1987,0,U,39358,999,69063,.11714859E-3,.1181E-4,0
SL-4 R/B,2014-021B,2026-07-15T21:34:20.586432,15.42491690,.00895826,51.6066,70.0544,211.0723,148.4947,0,U,39679,999,67604,.11435363E-3,.5349E-4,0
ALOS-2,2014-029A,2026-07-15T22:49:06.449376,14.79466124,.00015764,97.9235,293.7030,91.4209,268.7183,0,U,39766,999,65583,.5658379E-5,-.9E-7,0
YAOGAN-29,2015-069A,2026-07-15T23:40:30.040320,14.83108424,.00006724,98.0017,225.6631,15.0271,345.0963,0,U,41038,999,57489,.71202724E-4,.526E-5,0
ASTRO-H (HITOMI),2016-012A,2026-07-15T10:44:36.350016,15.10633098,.0009649,30.9981,251.6570,177.8511,182.2170,0,U,41337,999,57156,.69423733E-4,.1273E-4,0
HXMT (HUIYAN),2017-034A,2026-07-15T22:38:29.721120,15.18692514,.00322086,43.0155,22.8923,325.4462,34.4293,0,U,42758,999,50203,.11690112E-3,.2254E-4,0
SAOCOM 1A,2018-076A,2026-07-15T23:06:47.676384,14.82150511,.00014839,97.8880,23.2933,85.5666,274.5716,0,U,43641,999,42036,.10550998E-3,.788E-5,0
H-2A R/B,2018-084L,2026-07-15T14:41:22.482528,15.46212820,.00205356,98.8530,81.7337,299.0779,60.8408,0,U,43682,999,42551,.26930215E-3,.13223E-3,0
SAOCOM 1B,2020-059A,2026-07-15T22:14:30.336000,14.82158330,.00015087,97.8883,22.3538,81.5612,278.5772,0,U,46265,999,31774,.31933735E-4,.202E-5,0
CSS (TIANHE),2021-035A,2026-07-15T12:51:01.431072,15.58093729,.0002229,41.4690,149.7716,300.3824,59.6794,0,U,48274,999,29759,.20014E-4,.1219E-4,0
COSMOS 2550,2021-056A,2026-07-15T21:52:18.746976,15.33831878,.00085115,67.1435,13.0167,270.2110,89.8069,0,U,48865,999,28312,.88471356E-4,.272E-4,0
CZ-2C R/B,2022-058K,2026-07-15T12:02:53.242368,15.63873458,.00301342,50.1855,15.9607,23.9117,336.3250,0,U,52794,999,23007,.28016353E-3,.27038E-3,0
CZ-2C R/B,2022-132E,2026-07-15T18:34:25.000608,15.75044788,.00093415,97.2890,205.1497,339.3600,20.7286,0,U,54039,999,21044,.33619325E-3,.50123E-3,0
GSLV R/B,2022-138AN,2026-07-15T20:31:20.822304,14.97384254,.00234728,87.3817,123.3579,50.0408,310.2880,0,U,54149,999,20310,.11187462E-3,.1336E-4,0
XRISM,2023-137A,2026-07-15T08:50:21.806016,15.12669567,.00078418,31.0008,177.0225,248.1772,111.8032,0,U,57800,999,15713,.10585006E-3,.1997E-4,0
ACS3,2024-077B,2026-07-15T07:49:26.157216,13.95282262,.01257574,97.1739,108.8789,36.5333,324.4331,0,U,59588,999,11196,.30372334E-2,.4361E-4,0
SPACEMOBILE-003,2024-163A,2026-07-15T22:28:15.361824,15.20707343,.00047091,52.9668,177.2357,195.9997,164.0849,0,U,61045,999,10214,.62950215E-4,.1075E-4,0
SPACEMOBILE-005,2024-163B,2026-07-15T09:27:17.935776,15.20721288,.00087039,52.9762,179.6783,196.2999,163.7716,0,U,61046,999,10205,.11604448E-3,.2259E-4,0
SPACEMOBILE-001,2024-163C,2026-07-15T09:24:54.883296,15.20741724,.00072054,52.9733,179.3964,194.1158,165.9636,0,U,61047,999,10205,.27081573E-4,.276E-5,0
SPACEMOBILE-002,2024-163D,2026-07-15T09:01:40.700928,15.20785739,.00060257,52.9778,179.5102,192.7695,167.3147,0,U,61048,999,10205,.17897689E-3,.367E-4,0
